ACS3                    
1 59588U 24077B   24123.45095573  .00000001  00000+0  35671-4 0  9991
2 59588  97.4072 202.2510 0019539 216.2831 143.6996 13.67673930  1158
